NORAD_CAT_ID,OBJECT_NAME,OBJECT_TYPE,EPOCH,MEAN_MOTION,ECCENTRICITY,INCLINATION,RA_OF_ASC_NODE,ARG_OF_PERICENTER,MEAN_ANOMALY,BSTAR,MEAN_MOTION_DOT,MEAN_MOTION_DDOT,TLE_LINE0,TLE_LINE1,TLE_LINE2,SEMIMAJOR_AXIS,PERIOD,APOGEE,PERIGEE,DECAYED
53427.0,STARLINK-4541,PAYLOAD,2023-10-09 19:23:07,15.08820087,0.0001351,53.2147,113.041,81.7484,278.3661,-0.00026811,-4.55e-05,0.0,0 STARLINK-4541,1 53427U 22097AR  23282.80772572 -.00004550  00000-0 -26811-3 0  9993,2 53427  53.2147 113.0410 0001351  81.7484 278.3661 15.08820087 65033,6917.941,95.439,540.741,538.872,0.0
53427.0,STARLINK-4541,PAYLOAD,2023-10-10 12:52:22,15.08836881,0.0001218,53.2158,109.7694,88.7711,271.3421,0.00019745,2.856e-05,0.0,0 STARLINK-4541,1 53427U 22097AR  23283.53636803  .00002856  00000-0  19745-3 0  9993,2 53427  53.2158 109.7694 0001218  88.7711 271.3421 15.08836881 65141,6917.89,95.438,540.598,538.912,0.0
53427.0,STARLINK-4541,PAYLOAD,2023-10-10 19:13:55,15.08849008,0.0001347,53.2158,108.5799,78.2896,281.8247,0.0012427,0.0001955,0.0,0 STARLINK-4541,1 53427U 22097AR  23283.80133204  .00019550  00000-0  12427-2 0  9998,2 53427  53.2158 108.5799 0001347  78.2896 281.8247 15.08849008 65669,6917.853,95.437,540.65,538.786,0.0
53427.0,STARLINK-4541,PAYLOAD,2023-10-10 22:24:41,15.08854864,0.0001341,53.2158,107.985,77.9569,282.1574,0.0012444,0.0001958,0.0,0 STARLINK-4541,1 53427U 22097AR  23283.93381070  .00019580  00000-0  12444-2 0  9990,2 53427  53.2158 107.9850 0001341  77.9569 282.1574 15.08854864 65200,6917.835,95.437,540.628,538.772,0.0
53427.0,STARLINK-4541,PAYLOAD,2023-10-11 12:43:08,15.08864987,0.0001354,53.2156,105.3091,77.477,282.6374,0.00079061,0.00012326,0.0,0 STARLINK-4541,1 53427U 22097AR  23284.52996360  .00012326  00000-0  79061-3 0  9990,2 53427  53.2156 105.3091 0001354  77.4770 282.6374 15.08864987 65299,6917.804,95.436,540.606,538.732,0.0
53427.0,STARLINK-4541,PAYLOAD,2023-10-12 04:36:59,15.08868439,0.0001343,53.2158,102.3348,77.2577,282.8566,0.00052761,8.125e-05,0.0,0 STARLINK-4541,1 53427U 22097AR  23285.19235269  .00008125  00000-0  52761-3 0  9998,2 53427  53.2158 102.3348 0001343  77.2577 282.8566 15.08868439 65396,6917.793,95.436,540.588,538.729,0.0
53427.0,STARLINK-4541,PAYLOAD,2023-10-12 12:33:54,15.08855088,0.0001316,53.2157,100.8493,89.4451,270.6692,-1.3696e-05,-5.06e-06,0.0,0 STARLINK-4541,1 53427U 22097AR  23285.52355102 -.00000506  00000-0 -13696-4 0  9996,2 53427  53.2157 100.8493 0001316  89.4451 270.6692 15.08855088 65925,6917.834,95.437,540.61,538.789,0.0
53427.0,STARLINK-4541,PAYLOAD,2023-10-12 18:55:27,15.08858659,0.000128,53.2158,99.66,90.6658,269.4481,0.00028626,4.273e-05,0.0,0 STARLINK-4541,1 53427U 22097AR  23285.78850823  .00004273  00000-0  28626-3 0  9995,2 53427  53.2158  99.6600 0001280  90.6658 269.4481 15.08858659 65484,6917.823,95.436,540.574,538.803,0.0
53427.0,STARLINK-4541,PAYLOAD,2023-10-13 04:27:45,15.0884849,0.0001237,53.2158,97.877,88.6509,271.4625,0.00021334,3.11e-05,0.0,0 STARLINK-4541,1 53427U 22097AR  23286.18594845  .00003110  00000-0  21334-3 0  9997,2 53427  53.2158  97.8770 0001237  88.6509 271.4625 15.08848490 65548,6917.854,95.437,540.575,538.864,0.0
53427.0,STARLINK-4541,PAYLOAD,2023-10-13 20:21:37,15.08847346,0.0001256,53.2152,94.9014,78.9637,281.1496,3.1227e-05,2.09e-06,0.0,0 STARLINK-4541,1 53427U 22097AR  23286.84834953  .00000209  00000-0  31227-4 0  9996,2 53427  53.2152  94.9014 0001256  78.9637 281.1496 15.08847346 65640,6917.858,95.437,540.592,538.854,0.0
53427.0,STARLINK-4541,PAYLOAD,2023-10-14 10:40:05,15.08840911,0.0001276,53.215,92.2248,85.683,274.4308,0.00017685,2.528e-05,0.0,0 STARLINK-4541,1 53427U 22097AR  23287.44451344  .00002528  00000-0  17685-3 0  9999,2 53427  53.2150  92.2248 0001276  85.6830 274.4308 15.08840911 65738,6917.878,95.437,540.625,538.86,0.0
53427.0,STARLINK-4541,PAYLOAD,2023-10-14 18:37:01,15.08846444,0.0001349,53.215,90.7378,80.7179,279.3966,0.00051387,7.901e-05,0.0,0 STARLINK-4541,1 53427U 22097AR  23287.77571378  .00007901  00000-0  51387-3 0  9992,2 53427  53.2150  90.7378 0001349  80.7179 279.3966 15.08846444 66268,6917.861,95.437,540.659,538.792,0.0
53427.0,STARLINK-4541,PAYLOAD,2023-10-15 10:30:53,15.0883851,0.0001297,53.215,87.7644,84.3467,275.7673,0.00011962,1.616e-05,0.0,0 STARLINK-4541,1 53427U 22097AR  23288.43811553  .00001616  00000-0  11962-3 0  9990,2 53427  53.2150  87.7644 0001297  84.3467 275.7673 15.08838510 65889,6917.885,95.438,540.647,538.853,0.0
53427.0,STARLINK-4541,PAYLOAD,2023-10-15 13:41:39,15.08835283,0.0001311,53.2152,87.1698,84.6015,275.5127,5.7509e-05,6.27e-06,0.0,0 STARLINK-4541,1 53427U 22097AR  23288.57059750  .00000627  00000-0  57509-4 0  9997,2 53427  53.2152  87.1698 0001311  84.6015 275.5127 15.08835283 66385,6917.895,95.438,540.667,538.853,0.0
53427.0,STARLINK-4541,PAYLOAD,2023-10-15 18:27:49,15.08839392,0.00012,53.2158,86.2776,90.3503,269.7627,0.00020053,2.905e-05,0.0,0 STARLINK-4541,1 53427U 22097AR  23288.76931714  .00002905  00000-0  20053-3 0  9991,2 53427  53.2158  86.2776 0001200  90.3503 269.7627 15.08839392 66410,6917.882,95.438,540.577,538.917,0.0
53427.0,STARLINK-4541,PAYLOAD,2023-10-16 04:00:07,15.0883698,0.0001209,53.216,84.4926,94.0988,266.0143,8.171e-05,1.013e-05,0.0,0 STARLINK-4541,1 53427U 22097AR  23289.16675900  .00001013  00000-0  81710-4 0  9995,2 53427  53.2160  84.4926 0001209  94.0988 266.0143 15.08836980 66476,6917.89,95.438,540.591,538.918,0.0
53427.0,STARLINK-4541,PAYLOAD,2023-10-16 16:43:13,15.08841029,0.0001293,53.2163,82.1138,86.8785,273.2355,0.00010983,1.461e-05,0.0,0 STARLINK-4541,1 53427U 22097AR  23289.69667847  .00001461  00000-0  10983-3 0  9994,2 53427  53.2163  82.1138 0001293  86.8785 273.2355 15.08841029 66077,6917.877,95.437,540.637,538.848,0.0
53427.0,STARLINK-4541,PAYLOAD,2023-10-17 10:12:27,15.08838364,0.0001279,53.2177,78.8445,84.2812,275.8326,0.00013223,1.817e-05,0.0,0 STARLINK-4541,1 53427U 22097AR  23290.42532063  .00001817  00000-0  13223-3 0  9993,2 53427  53.2177  78.8445 0001279  84.2812 275.8326 15.08838364 66661,6917.885,95.438,540.635,538.866,0.0
53427.0,STARLINK-4541,PAYLOAD,2023-10-17 16:33:59,15.0884462,0.000145,53.2184,77.6557,82.3981,277.7176,0.00015749,2.22e-05,0.0,0 STARLINK-4541,1 53427U 22097AR  23290.69027701  .00002220  00000-0  15749-3 0  9994,2 53427  53.2184  77.6557 0001450  82.3981 277.7176 15.08844620 66708,6917.866,95.437,540.734,538.728,0.0
53427.0,STARLINK-4541,PAYLOAD,2023-10-18 10:03:14,15.08838794,4.84e-05,53.2178,74.3829,29.8383,330.2636,9.8095e-05,1.274e-05,0.0,0 STARLINK-4541,1 53427U 22097AR  23291.41892249  .00001274  00000-0  98095-4 0  9996,2 53427  53.2178  74.3829 0000484  29.8383 330.2636 15.08838794 66335,6917.884,95.438,540.084,539.414,0.0
53427.0,STARLINK-4541,PAYLOAD,2023-10-18 16:24:47,15.08840734,0.0001313,53.2176,73.1932,83.7948,276.3193,9.815e-05,1.275e-05,0.0,0 STARLINK-4541,1 53427U 22097AR  23291.68388215  .00001275  00000-0  98150-4 0  9991,2 53427  53.2176  73.1932 0001313  83.7948 276.3193 15.08840734 66855,6917.878,95.438,540.651,538.835,0.0
53427.0,STARLINK-4541,PAYLOAD,2023-10-19 01:57:05,15.08846199,0.0001235,53.2176,71.409,79.976,280.1372,8.6463e-05,1.089e-05,0.0,0 STARLINK-4541,1 53427U 22097AR  23292.08131741  .00001089  00000-0  86463-4 0  9993,2 53427  53.2176  71.4090 0001235  79.9760 280.1372 15.08846199 66430,6917.861,95.437,540.581,538.872,0.0
53427.0,STARLINK-4541,PAYLOAD,2023-10-19 09:54:01,15.08842223,0.0001675,53.2152,69.9246,87.3682,272.7502,1.7072e-05,-1.6e-07,0.0,0 STARLINK-4541,1 53427U 22097AR  23292.41252271 -.00000016  00000-0  17072-4 0  9992,2 53427  53.2152  69.9246 0001675  87.3682 272.7502 15.08842223 66967,6917.874,95.437,540.897,538.58,0.0
53427.0,STARLINK-4541,PAYLOAD,2023-10-19 16:15:34,15.08847484,0.0001758,53.2181,68.7342,88.9482,271.1711,8.6683e-05,1.092e-05,0.0,0 STARLINK-4541,1 53427U 22097AR  23292.67747745  .00001092  00000-0  86683-4 0  9993,2 53427  53.2181  68.7342 0001758  88.9482 271.1711 15.08847484 67005,6917.858,95.437,540.939,538.506,0.0
53427.0,STARLINK-4541,PAYLOAD,2023-10-20 01:47:53,15.08837114,0.0002544,53.2163,66.9508,94.5615,265.5668,0.00017849,2.553e-05,0.0,0 STARLINK-4541,1 53427U 22097AR  23293.07492338  .00002553  00000-0  17849-3 0  9993,2 53427  53.2163  66.9508 0002544  94.5615 265.5668 15.08837114 66583,6917.889,95.438,541.514,537.994,0.0
53427.0,STARLINK-4541,PAYLOAD,2023-10-20 19:17:08,15.08839744,0.0001198,53.2203,63.6807,72.6763,287.436,-0.00010011,-1.881e-05,0.0,0 STARLINK-4541,1 53427U 22097AR  23293.80356837 -.00001881  00000-0 -10011-3 0  9996,2 53427  53.2203  63.6807 0001198  72.6763 287.4360 15.08839744 66694,6917.881,95.438,540.575,538.917,0.0
53427.0,STARLINK-4541,PAYLOAD,2023-10-21 11:10:59,15.0884177,7.32e-05,53.2222,60.7072,124.2762,235.83,4.1214e-05,3.68e-06,0.0,0 STARLINK-4541,1 53427U 22097AR  23294.46596129  .00000368  00000-0  41214-4 0  9996,2 53427  53.2222  60.7072 0000732 124.2762 235.8300 15.08841770 66797,6917.875,95.437,540.246,539.234,0.0
53427.0,STARLINK-4541,PAYLOAD,2023-10-21 17:32:30,15.08859135,0.0001136,53.2187,59.5191,122.9574,237.1527,0.0002012,2.917e-05,0.0,0 STARLINK-4541,1 53427U 22097AR  23294.73090657  .00002917  00000-0  20120-3 0  9995,2 53427  53.2187  59.5191 0001136 122.9574 237.1527 15.08859135 66835,6917.822,95.436,540.473,538.901,0.0
53427.0,STARLINK-4541,PAYLOAD,2023-10-22 01:29:27,15.08838318,0.0002725,53.2218,58.0281,80.823,279.3071,0.00013321,1.832e-05,0.0,0 STARLINK-4541,1 53427U 22097AR  23295.06212736  .00001832  00000-0  13321-3 0  9996,2 53427  53.2218  58.0281 0002725  80.8230 279.3071 15.08838318 66887,6917.886,95.438,541.636,537.865,0.0
53427.0,STARLINK-4541,PAYLOAD,2023-10-22 12:37:10,15.08819691,0.000138,53.2168,55.9508,87.1161,272.9989,-1.7626e-05,-5.68e-06,0.0,0 STARLINK-4541,1 53427U 22097AR  23295.52582113 -.00000568  00000-0 -17626-4 0  9996,2 53427  53.2168  55.9508 0001380  87.1161 272.9989 15.08819691 66956,6917.942,95.439,540.762,538.853,0.0
